{
  "type": "FeatureCollection",
  "features": [
    {
      "type": "Feature",
      "properties": {
        "norad_id": 66851,
        "name": "STARLINK-36094",
        "group": "last-30-days",
        "lat": 17.515747547309136,
        "lon": 135.6912289403334,
        "alt_km": 300.40564386790084,
        "timestamp": "2025-12-13T18:50:03.174629+00:00",
        "meta_object_name": "STARLINK-36094",
        "meta_object_id": "2025-281D",
        "meta_epoch": "2025-12-13T06:39:52.277760",
        "meta_mean_motion": 15.89964839,
        "meta_eccentricity": 0.00031097,
        "meta_inclination": 43.0005,
        "meta_ra_of_asc_node": 119.0405,
        "meta_arg_of_pericenter": 249.6994,
        "meta_mean_anomaly": 110.3547,
        "meta_ephemeris_type": 0,
        "meta_classification_type": "U",
        "meta_norad_cat_id": 66851,
        "meta_element_set_no": 999,
        "meta_rev_at_epoch": 288,
        "meta_bstar": 0.0006554398,
        "meta_mean_motion_dot": 0.00207646,
        "meta_mean_motion_ddot": 0,
        "tle_line1": "1 66851U 25281D   25347.27768840  .00207646  00000+0  65544-3 0  9998",
        "tle_line2": "2 66851  43.0005 119.0405 0003109 249.6994 110.3547 15.89964839  2887"
      },
      "geometry": {
        "type": "Point",
        "coordinates": [
          135.6912289403334,
          17.515747547309136
        ]
      }
    },
    {
      "type": "Feature",
      "properties": {
        "norad_id": 66852,
        "name": "STARLINK-35992",
        "group": "last-30-days",
        "lat": 20.83717922934758,
        "lon": 139.98778336762294,
        "alt_km": 292.3881744218006,
        "timestamp": "2025-12-13T18:50:03.174640+00:00",
        "meta_object_name": "STARLINK-35992",
        "meta_object_id": "2025-281E",
        "meta_epoch": "2025-12-13T02:07:57.775296",
        "meta_mean_motion": 15.90839104,
        "meta_eccentricity": 0.00039844,
        "meta_inclination": 43.0008,
        "meta_ra_of_asc_node": 120.2059,
        "meta_arg_of_pericenter": 346.7655,
        "meta_mean_anomaly": 13.3115,
        "meta_ephemeris_type": 0,
        "meta_classification_type": "U",
        "meta_norad_cat_id": 66852,
        "meta_element_set_no": 999,
        "meta_rev_at_epoch": 285,
        "meta_bstar": 0.0018498566,
        "meta_mean_motion_dot": 0.00596999,
        "meta_mean_motion_ddot": 0.00014608553,
        "tle_line1": "1 66852U 25281E   25347.08886314  .00596999  14609-3  18499-2 0  9997",
        "tle_line2": "2 66852  43.0008 120.2059 0003984 346.7655  13.3115 15.90839104  2852"
      },
      "geometry": {
        "type": "Point",
        "coordinates": [
          139.98778336762294,
          20.83717922934758
        ]
      }
    },
    {
      "type": "Feature",
      "properties": {
        "norad_id": 66853,
        "name": "STARLINK-35986",
        "group": "last-30-days",
        "lat": 21.09504817414074,
        "lon": 140.3352761079188,
        "alt_km": 299.95091961084745,
        "timestamp": "2025-12-13T18:50:03.174650+00:00",
        "meta_object_name": "STARLINK-35986",
        "meta_object_id": "2025-281F",
        "meta_epoch": "2025-12-13T06:38:28.442112",
        "meta_mean_motion": 15.90153253,
        "meta_eccentricity": 0.00023091,
        "meta_inclination": 43.0005,
        "meta_ra_of_asc_node": 119.0322,
        "meta_arg_of_pericenter": 242.4337,
        "meta_mean_anomaly": 117.6303,
        "meta_ephemeris_type": 0,
        "meta_classification_type": "U",
        "meta_norad_cat_id": 66853,
        "meta_element_set_no": 999,
        "meta_rev_at_epoch": 288,
        "meta_bstar": -0.00017869687,
        "meta_mean_motion_dot": -0.00056272,
        "meta_mean_motion_ddot": 0,
        "tle_line1": "1 66853U 25281F   25347.27671808 -.00056272  00000+0 -17870-3 0  9995",
        "tle_line2": "2 66853  43.0005 119.0322 0002309 242.4337 117.6303 15.90153253  2882"
      },
      "geometry": {
        "type": "Point",
        "coordinates": [
          140.3352761079188,
          21.09504817414074
        ]
      }
    },
    {
      "type": "Feature",
      "properties": {
        "norad_id": 66854,
        "name": "STARLINK-36087",
        "group": "last-30-days",
        "lat": 24.883252624068778,
        "lon": 145.7150880047289,
        "alt_km": 290.23657475481286,
        "timestamp": "2025-12-13T18:50:03.174661+00:00",
        "meta_object_name": "STARLINK-36087",
        "meta_object_id": "2025-281G",
        "meta_epoch": "2025-12-13T02:06:23.867136",
        "meta_mean_motion": 15.91020373,
        "meta_eccentricity": 0.00048587,
        "meta_inclination": 43.0008,
        "meta_ra_of_asc_node": 120.1967,
        "meta_arg_of_pericenter": 19.6571,
        "meta_mean_anomaly": 340.449,
        "meta_ephemeris_type": 0,
        "meta_classification_type": "U",
        "meta_norad_cat_id": 66854,
        "meta_element_set_no": 999,
        "meta_rev_at_epoch": 285,
        "meta_bstar": 0.0017449449,
        "meta_mean_motion_dot": 0.00568609,
        "meta_mean_motion_ddot": 0.00013290224,
        "tle_line1": "1 66854U 25281G   25347.08777624  .00568609  13290-3  17449-2 0  9998",
        "tle_line2": "2 66854  43.0008 120.1967 0004858  19.6571 340.4490 15.91020373  2856"
      },
      "geometry": {
        "type": "Point",
        "coordinates": [
          145.7150880047289,
          24.883252624068778
        ]
      }
    },
    {
      "type": "Feature",
      "properties": {
        "norad_id": 66855,
        "name": "STARLINK-36090",
        "group": "last-30-days",
        "lat": 25.76511859312977,
        "lon": 147.05562110889394,
        "alt_km": 294.029649815885,
        "timestamp": "2025-12-13T18:50:03.174671+00:00",
        "meta_object_name": "STARLINK-36090",
        "meta_object_id": "2025-281H",
        "meta_epoch": "2025-12-13T02:05:43.692000",
        "meta_mean_motion": 15.90803244,
        "meta_eccentricity": 0.00027108,
        "meta_inclination": 43.001,
        "meta_ra_of_asc_node": 120.1928,
        "meta_arg_of_pericenter": 339.8794,
        "meta_mean_anomaly": 20.1974,
        "meta_ephemeris_type": 0,
        "meta_classification_type": "U",
        "meta_norad_cat_id": 66855,
        "meta_element_set_no": 999,
        "meta_rev_at_epoch": 285,
        "meta_bstar": 0.00072619938,
        "meta_mean_motion_dot": 0.00241105,
        "meta_mean_motion_ddot": 0,
        "tle_line1": "1 66855U 25281H   25347.08731125  .00241105  00000+0  72620-3 0  9998",
        "tle_line2": "2 66855  43.0010 120.1928 0002710 339.8794  20.1974 15.90803244  2850"
      },
      "geometry": {
        "type": "Point",
        "coordinates": [
          147.05562110889394,
          25.76511859312977
        ]
      }
    },
    {
      "type": "Feature",
      "properties": {
        "norad_id": 66856,
        "name": "STARLINK-36072",
        "group": "last-30-days",
        "lat": 27.308677014276224,
        "lon": 149.50153583880046,
        "alt_km": 296.70499835656847,
        "timestamp": "2025-12-13T18:50:03.174681+00:00",
        "meta_object_name": "STARLINK-36072",
        "meta_object_id": "2025-281J",
        "meta_epoch": "2025-12-13T06:36:20.097504",
        "meta_mean_motion": 15.90815408,
        "meta_eccentricity": 0.00055338,
        "meta_inclination": 43.0005,
        "meta_ra_of_asc_node": 119.0194,
        "meta_arg_of_pericenter": 248.4415,
        "meta_mean_anomaly": 111.587,
        "meta_ephemeris_type": 0,
        "meta_classification_type": "U",
        "meta_norad_cat_id": 66856,
        "meta_element_set_no": 999,
        "meta_rev_at_epoch": 288,
        "meta_bstar": 0.0021297106,
        "meta_mean_motion_dot": 0.00686897,
        "meta_mean_motion_ddot": 0.00019391404,
        "tle_line1": "1 66856U 25281J   25347.27523261  .00686897  19391-3  21297-2 0  9991",
        "tle_line2": "2 66856  43.0005 119.0194 0005533 248.4415 111.5870 15.90815408  2886"
      },
      "geometry": {
        "type": "Point",
        "coordinates": [
          149.50153583880046,
          27.308677014276224
        ]
      }
    },
    {
      "type": "Feature",
      "properties": {
        "norad_id": 66857,
        "name": "STARLINK-36083",
        "group": "last-30-days",
        "lat": 29.3314800542945,
        "lon": 152.92860104619837,
        "alt_km": 291.7334646419422,
        "timestamp": "2025-12-13T18:50:03.174691+00:00",
        "meta_object_name": "STARLINK-36083",
        "meta_object_id": "2025-281K",
        "meta_epoch": "2025-12-13T02:04:24.085632",
        "meta_mean_motion": 15.91008292,
        "meta_eccentricity": 0.00036341,
        "meta_inclination": 43.0006,
        "meta_ra_of_asc_node": 120.1852,
        "meta_arg_of_pericenter": 338.5354,
        "meta_mean_anomaly": 21.5368,
        "meta_ephemeris_type": 0,
        "meta_classification_type": "U",
        "meta_norad_cat_id": 66857,
        "meta_element_set_no": 999,
        "meta_rev_at_epoch": 285,
        "meta_bstar": 0.0015828787,
        "meta_mean_motion_dot": 0.00515146,
        "meta_mean_motion_ddot": 0.00010953086,
        "tle_line1": "1 66857U 25281K   25347.08638988  .00515146  10953-3  15829-2 0  9991",
        "tle_line2": "2 66857  43.0006 120.1852 0003634 338.5354  21.5368 15.91008292  2850"
      },
      "geometry": {
        "type": "Point",
        "coordinates": [
          152.92860104619837,
          29.3314800542945
        ]
      }
    }
  ]
}